IRIDIUM 155             
1 43573U 18061E   25291.92132497  .00000099  00000+0  28181-4 0  9995
2 43573  86.4000 157.5359 0002123  78.6824 281.4610 14.34218020378779
IRIDIUM 154             
1 43574U 18061F   25291.90231088  .00000411  00000+0  13969-3 0  9995
2 43574  86.4004 157.6653 0002073  84.3463 275.7969 14.34221927378828
IRIDIUM 163             
1 43575U 18061G   25291.88328755  .00000409  00000+0  13882-3 0  9992
2 43575  86.4002 157.5963 0002297  85.6746 274.4712 14.34217476378798
IRIDIUM 156             
1 43576U 18061H   25291.64859279  .00000101  00000+0  28860-4 0  9999
2 43576  86.4000 157.7012 0002023  77.0258 283.1163 14.34218308378752
IRIDIUM 164             
1 43577U 18061J   25291.90863900  .00000112  00000+0  33036-4 0  9998
2 43577  86.4003 157.6292 0001903  85.0280 275.1133 14.34218245378832
IRIDIUM 159             
1 43578U 18061K   25291.87692764 -.00000031  00000+0 -17983-4 0  9998
2 43578  86.4003 157.5839 0002014  88.8473 271.2954 14.34217187378795
IRIDIUM 180             
1 43922U 19002A   25291.94619073  .00000043  00000+0  82327-5 0  9993
2 43922  86.3919  94.4551 0002095  90.5980 269.5456 14.34217677354419
IRIDIUM 176             
1 43923U 19002B   25291.94160689  .00000659  00000+0  10063-3 0  9997
2 43923  86.6041  94.4353 0002375  73.2187 286.9291 14.72252037363755
IRIDIUM 168             
1 43924U 19002C   25291.93984839  .00000049  00000+0  10552-4 0  9995
2 43924  86.3919  94.5282 0002164  89.7501 270.3943 14.34217921354399
IRIDIUM 173             
1 43925U 19002D   25291.92716311 -.00000066  00000+0 -30630-4 0  9993
2 43925  86.3918  94.4323 0002178  88.1663 271.9782 14.34216851354378
IRIDIUM 169             
1 43926U 19002E   25291.96327452  .00000200  00000+0  58834-4 0  9996
2 43926  86.4198 126.0639 0002935  65.0907 295.0596 14.38607891355540
IRIDIUM 172             
1 43927U 19002F   25291.92082074  .00000036  00000+0  57049-5 0  9996
2 43927  86.3915  94.4419 0002263  95.6240 264.5214 14.34217536354382
IRIDIUM 175             
1 43928U 19002G   25291.80085185  .00001882  00000+0  29457-3 0  9990
2 43928  86.1529  39.9831 0001342  84.6886 275.4483 14.72245848363721
IRIDIUM 171             
1 43929U 19002H   25291.97156038  .00000170  00000+0  53535-4 0  9999
2 43929  86.3925  94.7007 0001773  86.4193 273.7205 14.34218358354386
IRIDIUM 170             
1 43930U 19002J   25291.94778129  .00000672  00000+0  10270-3 0  9994
2 43930  86.6040  94.4367 0002163  88.7641 271.3824 14.72253584363767
IRIDIUM 167             
1 43931U 19002K   25291.96521704  .00000003  00000+0 -59777-5 0  9998
2 43931  86.3918  94.4440 0001744  78.9291 281.2100 14.34217557354380
IRIDIUM 181             
1 56726U 23068S   25291.90963217  .00000556  00000+0  15910-3 0  9995
2 56726  86.4540 157.6221 0001625  93.5977 266.5409 14.43309134127636
IRIDIUM 177             
1 56727U 23068T   25291.71442235  .00001463  00000+0  18911-3 0  9999
2 56727  86.1931  83.4639 0002159  88.4829 271.6640 14.80225919130647
IRIDIUM 174             
1 56728U 23068U   25291.93546240  .00000726  00000+0  11129-3 0  9990
2 56728  86.6048  94.5651 0002806  90.4339 269.7199 14.72255917130523
IRIDIUM 178             
1 56729U 23068V   25291.90634823  .00000775  00000+0  98496-4 0  9990
2 56729  86.6517 126.2161 0002093  79.7407 280.4050 14.80231833130670
IRIDIUM 179             
1 56730U 23068W   25291.96857821  .00001036  00000+0  13293-3 0  9995
2 56730  86.6773 134.4438 0001885  70.0229 290.1195 14.80228698130682
